STARLINK-30858          
1 58358U 23177H   24133.06158350 -.00020783  00000+0 -15288-2 0  9997
2 58358  43.0108  14.1954 0001723 282.3342  77.7308 15.02514908 27958
STARLINK-30878          
1 58359U 23177J   24133.08371308 -.00036801  00000+0 -27299-2 0  9993
2 58359  43.0038  13.4975 0001186 274.7180  85.3527 15.02447204 27956
STARLINK-30897          
1 58360U 23177K   24133.13144110 -.00015015  00000+0 -11004-2 0  9991
2 58360  43.0043  13.8599 0001297 278.9525  81.1170 15.02481032 27979
STARLINK-30885          
1 58361U 23177L   24133.05492855  .00038402  00000+0  28492-2 0  9997
2 58361  43.0038  14.1471 0001412 262.9665  97.1017 15.02444550 27953
STARLINK-30890          
1 58362U 23177M   24133.11807494 -.00087775  00000+0 -65777-2 0  9990
2 58362  43.0042  13.7592 0000478 267.7445  92.3342 15.02460007 27906
STARLINK-30909          
1 58363U 23177N   24133.11701620 -.00030241  00000+0 -22381-2 0  9995
2 58363  43.0045  13.7497 0001144 256.5129 103.5585 15.02454251 27953
STARLINK-30904          
1 58364U 23177P   24133.11993698 -.00026105  00000+0 -19261-2 0  9991
2 58364  43.0042  12.0624 0001492 279.6203  80.4470 15.02506486 27976
STARLINK-30918          
1 58365U 23177Q   24132.11093135  .00011451  00000+0  86070-3 0  9997
2 58365  43.0037  19.1029 0001977 261.6821  98.3797 15.02564233 27797
STARLINK-30892          
1 58366U 23177R   24133.04496173 -.00079096  00000+0 -59189-2 0  9991
2 58366  43.0040  14.0706 0001215 257.7911 102.2795 15.02456180 27940
STARLINK-30891          
1 58367U 23177S   24133.10475048  .00020236  00000+0  15116-2 0  9999
2 58367  43.0041  13.6568 0001298 260.6472  99.4224 15.02463882 27793
STARLINK-30889          
1 58368U 23177T   24133.04048744  .00000667  00000+0  64416-4 0  9997
2 58368  43.0040  14.0348 0002992 277.9468  82.1035 15.02557982 27943
STARLINK-30870          
1 58369U 23177U   24133.10254209 -.00038547  00000+0 -28577-2 0  9996
2 58369  43.0049  13.6402 0001051 294.1662  65.9071 15.02488853 27951
STARLINK-30888          
1 58370U 23177V   24133.14026612 -.00037828  00000+0 -28016-2 0  9996
2 58370  43.0044  13.9106 0001674 272.0804  87.9847 15.02518148 27952
STARLINK-30859          
1 58371U 23177W   24133.06381829  .00038429  00000+0  28545-2 0  9995
2 58371  43.0071  14.1741 0002057 264.3463  95.7144 15.02399940 27945
STARLINK-30884          
1 58372U 23177X   24133.03052406 -.00045443  00000+0 -33747-2 0  9995
2 58372  43.0083  13.9558 0001921 269.4722  90.5900 15.02490577 27946
STARLINK-30852          
1 58373U 23177Y   24133.05827470 -.00057559  00000+0 -42867-2 0  9993
2 58373  43.0058  14.1346 0001507 297.9957  62.0733 15.02484550 27934
STARLINK-30911          
1 58374U 23178A   24133.25001157  .00231614  00000+0  81470-2 0  9990
2 58374  53.1257 219.3361 0001374  92.2278  47.4721 15.27894738 27819
STARLINK-30894          
1 58375U 23178B   24133.21560084 -.00037557  00000+0 -13520-2 0  9999
2 58375  53.1274 219.3920 0001637  82.9332 277.1853 15.27972274 27741
STARLINK-30910          
1 58376U 23178C   24132.94899968 -.00021784  00000+0 -77756-3 0  9992
2 58376  53.1294 220.5826 0002244  83.4739 276.6516 15.27955775 27775
STARLINK-30914          
1 58377U 23178D   24133.25001157  .00054491  00000+0  19710-2 0  9997
2 58377  53.1298 219.3430 0001358  80.5871  57.5537 15.27927713 27812
STARLINK-30920          
1 58378U 23178E   24132.67375393 -.00011646  00000+0 -40889-3 0  9998
2 58378  53.1325 222.4429 0001263  58.7208 301.3915 15.27984986 27728
STARLINK-30882          
1 58379U 23178F   24133.20597762  .00090535  00000+0  32010-2 0  9993
2 58379  53.1241 219.3176 0000885 282.6703  77.4197 15.28431178 27811
STARLINK-30915          
1 58380U 23178G   24132.91667824 -.00582443  00000+0 -23444-2 0  9996
2 58380  53.0200 153.0448 0000541  96.3827  36.5077 15.87043830 28597
STARLINK-30923          
1 58381U 23178H   24132.66350481  .00058389  00000+0  20883-2 0  9996
2 58381  53.1183 221.5794 0001837  90.8197 269.3013 15.28266253 27666
STARLINK-30927          
1 58382U 23178J   24132.95317878 -.00028351  00000+0 -10151-2 0  9997
2 58382  53.1330 219.9182 0002350  68.4167 291.7082 15.28006497 27759
STARLINK-30921          
1 58383U 23178K   24132.93458886 -.00029478  00000+0 -10561-2 0  9997
2 58383  53.1282 220.5043 0001369  85.1197 274.9959 15.28009719 27743
STARLINK-30825          
1 58384U 23178L   24132.89286190 -.00006606  00000+0 -22575-3 0  9997
2 58384  53.1272 220.9219 0000999 174.7216 185.3794 15.28059434 27759
STARLINK-30930          
1 58385U 23178M   24132.96799137 -.00029294  00000+0 -10502-2 0  9990
2 58385  53.1272 220.6992 0001704  73.2517 286.8669 15.27984049 27618
STARLINK-30929          
1 58386U 23178N   24132.92953063 -.00027990  00000+0 -10039-2 0  9993
2 58386  53.1112 217.4723 0001550  87.8190 272.2986 15.27945280 27788
STARLINK-30898          
1 58387U 23178P   24133.20078982 -.00048993  00000+0 -17712-2 0  9995
2 58387  53.1156 218.5089 0003446  75.5649 284.5732 15.27949089 27824
STARLINK-30913          
1 58388U 23178Q   24133.24760183 -.00029158  00000+0 -10458-2 0  9993
2 58388  53.1280 218.8875 0000998  88.7116 271.3998 15.27967936 27822
STARLINK-30938          
1 58389U 23178R   24132.64993350  .00007641  00000+0  28706-3 0  9998
2 58389  53.1343 222.2794 0002015  62.8361 297.2844 15.28158072 27729
STARLINK-30868          
1 58390U 23178S   24132.65924537 -.00010725  00000+0 -37480-3 0  9990
2 58390  53.1252 221.6123 0001758  78.8045 281.3152 15.28043121 27733
STARLINK-30916          
1 58391U 23178T   24133.22421556 -.00019495  00000+0 -69418-3 0  9997
2 58391  53.1169 218.6711 0002455  79.5124 280.6152 15.27959641 27825
STARLINK-30937          
1 58392U 23178U   24133.21011134 -.00040394  00000+0 -14537-2 0  9997
2 58392  53.1191 218.5981 0003798  86.9023 273.2411 15.28008020 27823
STARLINK-30939          
1 58393U 23178V   24132.68266920  .00005008  00000+0  19334-3 0  9995
2 58393  53.1222 221.7656 0001623  97.3300 262.7884 15.28018415 27605
STARLINK-30887          
1 58394U 23178W   24132.95359751 -.00009716  00000+0 -33849-3 0  9990
2 58394  53.1096 220.5208 0002495  80.1583 279.9698 15.28022075 27752
STARLINK-30934          
1 58395U 23178X   24132.94379445  .00006634  00000+0  25148-3 0  9999
2 58395  53.1301 219.9017 0001063  94.5840 265.5280 15.28080051 27719
STARLINK-30964          
1 58402U 23180A   24133.21639043 -.00022359  00000+0 -16477-2 0  9993
2 58402  43.0017  77.1530 0001502 262.9407  97.1265 15.02481976 27346
STARLINK-30844          
1 58403U 23180B   24133.20650066 -.00042769  00000+0 -31761-2 0  9991
2 58403  43.0060  77.9435 0001693 248.2774 111.7889 15.02466696 27248
STARLINK-30876          
1 58404U 23180C   24133.20319476 -.00033391  00000+0 -24730-2 0  9998
2 58404  43.0066  77.9180 0001472 256.6963 103.3716 15.02467237 27338
STARLINK-30952          
1 58405U 23180D   24133.19987354 -.00029801  00000+0 -22053-2 0  9990
2 58405  43.0009  77.8918 0001364 288.0771  71.9922 15.02451892 27238
STARLINK-30925          
1 58406U 23180E   24133.13005018 -.00033801  00000+0 -25042-2 0  9999
2 58406  43.0022  78.2286 0001704 272.3388  87.7259 15.02459983 27221
STARLINK-30954          
1 58407U 23180F   24133.21308672 -.00031668  00000+0 -23462-2 0  9994
2 58407  43.0008  77.1291 0001015 256.0430 104.0300 15.02433678 27348
STARLINK-30906          
1 58408U 23180G   24133.21980142 -.00043362  00000+0 -32200-2 0  9997
2 58408  43.0037  77.8724 0001678 247.1991 112.8674 15.02474073 26969
STARLINK-30940          
1 58409U 23180H   24132.86205421 -.00043512  00000+0 -16654-2 0  9990
2 58409  42.9991  65.2011 0001026 254.2320 105.8417 15.25870028 27445
STARLINK-30933          
1 58410U 23180J   24133.18736697  .00000753  00000+0  38673-4 0  9997
2 58410  43.0020  65.0488 0001842 276.3373  83.7268 15.25868421 27483
STARLINK-30919          
1 58411U 23180K   24133.02558568 -.00045213  00000+0 -33624-2 0  9991
2 58411  43.0038  77.3754 0001506 281.5150  78.5523 15.02435744 27235
STARLINK-30924          
1 58412U 23180L   24133.22133430  .00027071  00000+0  10436-2 0  9997
2 58412  43.0065  65.3072 0001297 235.0625 125.0104 15.25825278 27473
STARLINK-30931          
1 58413U 23180M   24133.20570320 -.00018980  00000+0 -13960-2 0  9995
2 58413  43.0045  65.0776 0001496 261.0678  98.9995 15.02474825 27488
STARLINK-30922          
1 58414U 23180N   24133.11005710 -.00068833  00000+0 -51434-2 0  9992
2 58414  43.0043  78.0778 0001537 280.0308  80.0361 15.02441165 27323
STARLINK-30949          
1 58415U 23180P   24133.17985940 -.00005040  00000+0 -35841-3 0  9997
2 58415  43.0035  77.7113 0001461 253.2402 106.8280 15.02522750 27335
STARLINK-30967          
1 58416U 23180Q   24132.90587539 -.00018053  00000+0 -13531-2 0  9999
2 58416  43.0039  79.1141 0001957 226.4350 133.6330 15.01739566 27283
STARLINK-30955          
1 58417U 23180R   24133.22303422 -.00011330  00000+0 -82549-3 0  9990
2 58417  43.0017  77.1910 0001164 246.3566 113.7154 15.02513364 27338
STARLINK-30895          
1 58418U 23180S   24133.23640106 -.00020766  00000+0 -15303-2 0  9991
2 58418  43.0067  77.3007 0001520 259.0733 100.9939 15.02447444 27240
STARLINK-30917          
1 58419U 23180T   24133.23304783 -.00033376  00000+0 -24732-2 0  9997
2 58419  43.0035  77.2002 0001662 257.4138 102.6519 15.02446457 27334
STARLINK-30899          
1 58420U 23180U   24133.16324294 -.00013156  00000+0 -96202-3 0  9996
2 58420  43.0054  77.6156 0001652 251.0027 109.0636 15.02481553 27233
STARLINK-30902          
1 58421U 23180V   24133.20974039 -.00048790  00000+0 -36324-2 0  9990
2 58421  43.0028  77.1041 0001287 268.1458  91.9237 15.02426211 27241
STARLINK-30912          
1 58422U 23180W   24133.08917351  .00043299  00000+0  16622-2 0  9997
2 58422  43.0084  70.2772 0001144 283.2643  76.8081 15.25774048 27658
